IRIDIUM 63              
1 25286U 98021B   25207.11666965  .00000301  00000+0  95885-4 0  9991
2 25286  86.3942  65.7942 0002215  91.6875 268.4575 14.36567441429706
IRIDIUM 69              
1 25319U 98026A   25206.73207169  .00000422  00000+0  12509-3 0  9992
2 25319  86.3940  79.1314 0000410 198.0568 162.0617 14.40996814428619
IRIDIUM 71              
1 25320U 98026B   25207.56706627  .00000390  00000+0  11493-3 0  9994
2 25320  86.3935  73.4610 0001777  22.7852 337.3426 14.41182936429515
IRIDIUM 73              
1 25344U 98032C   25207.55736704  .00000531  00000+0  12703-3 0  9997
2 25344  86.4398  30.0866 0001871 105.9244 254.2168 14.51747834436570
IRIDIUM 82              
1 25467U 98051A   25206.73717154  .00022319  00000+0  60944-3 0  9999
2 25467  86.3643  90.7615 0084057 148.1680 212.4692 15.33687239429868
